CCSDS_OMM_VERS = 2.0
CREATION_DATE  = 
ORIGINATOR     = 

OBJECT_NAME    = SL-14 R/B
OBJECT_ID      = 1986-046B
CENTER_NAME    = EARTH
REF_FRAME      = TEME
TIME_SYSTEM    = UTC
MEAN_ELEMENT_THEORY = SGP/SGP4

EPOCH          = 2026-03-17T16:30:30.174336
MEAN_MOTION    = 14.85598263
ECCENTRICITY   = .00225655
INCLINATION    = 82.4785
RA_OF_ASC_NODE = 72.6218
ARG_OF_PERICENTER = 197.9354
MEAN_ANOMALY   = 162.1069

EPHEMERIS_TYPE = 0
CLASSIFICATION_TYPE = U
NORAD_CAT_ID   = 16792
ELEMENT_SET_NO = 999
REV_AT_EPOCH   = 12759
BSTAR          = .4813231E-4
MEAN_MOTION_DOT = .442E-5
MEAN_MOTION_DDOT = 0

CCSDS_OMM_VERS = 2.0
CREATION_DATE  = 
ORIGINATOR     = 

OBJECT_NAME    = SL-14 R/B
OBJECT_ID      = 1986-055B
CENTER_NAME    = EARTH
REF_FRAME      = TEME
TIME_SYSTEM    = UTC
MEAN_ELEMENT_THEORY = SGP/SGP4

EPOCH          = 2026-03-17T13:34:24.995712
MEAN_MOTION    = 14.85649766
ECCENTRICITY   = .00176254
INCLINATION    = 82.5186
RA_OF_ASC_NODE = 119.2706
ARG_OF_PERICENTER = 309.1840
MEAN_ANOMALY   = 203.7466

EPHEMERIS_TYPE = 0
CLASSIFICATION_TYPE = U
NORAD_CAT_ID   = 16882
ELEMENT_SET_NO = 999
REV_AT_EPOCH   = 12053
BSTAR          = .45791169E-4
MEAN_MOTION_DOT = .422E-5
MEAN_MOTION_DDOT = 0

CCSDS_OMM_VERS = 2.0
CREATION_DATE  = 
ORIGINATOR     = 

OBJECT_NAME    = AJISAI (EGS)
OBJECT_ID      = 1986-061A
CENTER_NAME    = EARTH
REF_FRAME      = TEME
TIME_SYSTEM    = UTC
MEAN_ELEMENT_THEORY = SGP/SGP4

EPOCH          = 2026-03-17T23:34:31.227168
MEAN_MOTION    = 12.44515702
ECCENTRICITY   = .00112968
INCLINATION    = 50.0089
RA_OF_ASC_NODE = 67.8466
ARG_OF_PERICENTER = 308.4048
MEAN_ANOMALY   = 99.4068

EPHEMERIS_TYPE = 0
CLASSIFICATION_TYPE = U
NORAD_CAT_ID   = 16908
ELEMENT_SET_NO = 999
REV_AT_EPOCH   = 46903
BSTAR          = .9203252E-5
MEAN_MOTION_DOT = -.96E-6
MEAN_MOTION_DDOT = 0

CCSDS_OMM_VERS = 2.0
CREATION_DATE  = 
ORIGINATOR     = 

OBJECT_NAME    = SL-14 R/B
OBJECT_ID      = 1987-024B
CENTER_NAME    = EARTH
REF_FRAME      = TEME
TIME_SYSTEM    = UTC
MEAN_ELEMENT_THEORY = SGP/SGP4

EPOCH          = 2026-03-17T09:09:37.221120
MEAN_MOTION    = 14.86139520
ECCENTRICITY   = .00169558
INCLINATION    = 82.5244
RA_OF_ASC_NODE = 85.5317
ARG_OF_PERICENTER = 232.2986
MEAN_ANOMALY   = 127.6694

EPHEMERIS_TYPE = 0
CLASSIFICATION_TYPE = U
NORAD_CAT_ID   = 17567
ELEMENT_SET_NO = 999
REV_AT_EPOCH   = 8927
BSTAR          = .48261702E-4
MEAN_MOTION_DOT = .448E-5
MEAN_MOTION_DDOT = 0

CCSDS_OMM_VERS = 2.0
CREATION_DATE  = 
ORIGINATOR     = 

OBJECT_NAME    = COSMOS 1833
OBJECT_ID      = 1987-027A
CENTER_NAME    = EARTH
REF_FRAME      = TEME
TIME_SYSTEM    = UTC
MEAN_ELEMENT_THEORY = SGP/SGP4

EPOCH          = 2026-03-17T22:19:38.136000
MEAN_MOTION    = 14.13052273
ECCENTRICITY   = .00238455
INCLINATION    = 70.9203
RA_OF_ASC_NODE = 308.6996
ARG_OF_PERICENTER = 202.7372
MEAN_ANOMALY   = 157.2696

EPHEMERIS_TYPE = 0
CLASSIFICATION_TYPE = U
NORAD_CAT_ID   = 17589
ELEMENT_SET_NO = 999
REV_AT_EPOCH   = 1148
BSTAR          = -.89993102E-4
MEAN_MOTION_DOT = -.217E-5
MEAN_MOTION_DDOT = 0

CCSDS_OMM_VERS = 2.0
CREATION_DATE  = 
ORIGINATOR     = 

OBJECT_NAME    = SL-16 R/B
OBJECT_ID      = 1987-027B
CENTER_NAME    = EARTH
REF_FRAME      = TEME
TIME_SYSTEM    = UTC
MEAN_ELEMENT_THEORY = SGP/SGP4

EPOCH          = 2026-03-17T22:48:57.538944
MEAN_MOTION    = 14.17166760
ECCENTRICITY   = .0003118
INCLINATION    = 70.9993
RA_OF_ASC_NODE = 259.0852
ARG_OF_PERICENTER = 123.9522
MEAN_ANOMALY   = 236.1899

EPHEMERIS_TYPE = 0
CLASSIFICATION_TYPE = U
NORAD_CAT_ID   = 17590
ELEMENT_SET_NO = 999
REV_AT_EPOCH   = 1651
BSTAR          = .2579834E-5
MEAN_MOTION_DOT = -.43E-6
MEAN_MOTION_DDOT = 0

CCSDS_OMM_VERS = 2.0
CREATION_DATE  = 
ORIGINATOR     = 

OBJECT_NAME    = SL-14 R/B
OBJECT_ID      = 1987-038B
CENTER_NAME    = EARTH
REF_FRAME      = TEME
TIME_SYSTEM    = UTC
MEAN_ELEMENT_THEORY = SGP/SGP4

EPOCH          = 2026-03-17T20:27:06.981696
MEAN_MOTION    = 14.85376403
ECCENTRICITY   = .00203216
INCLINATION    = 82.4988
RA_OF_ASC_NODE = 289.1170
ARG_OF_PERICENTER = 134.5280
MEAN_ANOMALY   = 225.7600

EPHEMERIS_TYPE = 0
CLASSIFICATION_TYPE = U
NORAD_CAT_ID   = 17912
ELEMENT_SET_NO = 999
REV_AT_EPOCH   = 8044
BSTAR          = .44236228E-4
MEAN_MOTION_DOT = .406E-5
MEAN_MOTION_DDOT = 0

CCSDS_OMM_VERS = 2.0
CREATION_DATE  = 
ORIGINATOR     = 

OBJECT_NAME    = COSMOS 1844
OBJECT_ID      = 1987-041A
CENTER_NAME    = EARTH
REF_FRAME      = TEME
TIME_SYSTEM    = UTC
MEAN_ELEMENT_THEORY = SGP/SGP4

EPOCH          = 2026-03-17T21:15:51.229440
MEAN_MOTION    = 14.14551103
ECCENTRICITY   = .00304351
INCLINATION    = 70.9007
RA_OF_ASC_NODE = 16.8875
ARG_OF_PERICENTER = 5.8863
MEAN_ANOMALY   = 354.2610

EPHEMERIS_TYPE = 0
CLASSIFICATION_TYPE = U
NORAD_CAT_ID   = 17973
ELEMENT_SET_NO = 999
REV_AT_EPOCH   = 474
BSTAR          = .8980538E-5
MEAN_MOTION_DOT = -.31E-6
MEAN_MOTION_DDOT = 0

CCSDS_OMM_VERS = 2.0
CREATION_DATE  = 
ORIGINATOR     = 

OBJECT_NAME    = SL-14 R/B
OBJECT_ID      = 1987-055B
CENTER_NAME    = EARTH
REF_FRAME      = TEME
TIME_SYSTEM    = UTC
MEAN_ELEMENT_THEORY = SGP/SGP4

EPOCH          = 2026-03-17T19:51:46.162368
MEAN_MOTION    = 14.85638340
ECCENTRICITY   = .00204001
INCLINATION    = 82.5027
RA_OF_ASC_NODE = 341.3636
ARG_OF_PERICENTER = 351.2775
MEAN_ANOMALY   = 8.8083

EPHEMERIS_TYPE = 0
CLASSIFICATION_TYPE = U
NORAD_CAT_ID   = 18153
ELEMENT_SET_NO = 999
REV_AT_EPOCH   = 7114
BSTAR          = .47142128E-4
MEAN_MOTION_DOT = .434E-5
MEAN_MOTION_DDOT = 0

CCSDS_OMM_VERS = 2.0
CREATION_DATE  = 
ORIGINATOR     = 

OBJECT_NAME    = COSMOS 1867
OBJECT_ID      = 1987-060A
CENTER_NAME    = EARTH
REF_FRAME      = TEME
TIME_SYSTEM    = UTC
MEAN_ELEMENT_THEORY = SGP/SGP4

EPOCH          = 2026-03-17T21:28:06.097728
MEAN_MOTION    = 14.31504254
ECCENTRICITY   = .00146055
INCLINATION    = 65.0098
RA_OF_ASC_NODE = 283.7274
ARG_OF_PERICENTER = 279.1354
MEAN_ANOMALY   = 80.8077

EPHEMERIS_TYPE = 0
CLASSIFICATION_TYPE = U
NORAD_CAT_ID   = 18187
ELEMENT_SET_NO = 999
REV_AT_EPOCH   = 2111
BSTAR          = .22798666E-4
MEAN_MOTION_DOT = -.4E-6
MEAN_MOTION_DDOT = 0

CCSDS_OMM_VERS = 2.0
CREATION_DATE  = 
ORIGINATOR     = 

OBJECT_NAME    = SL-14 R/B
OBJECT_ID      = 1988-001B
CENTER_NAME    = EARTH
REF_FRAME      = TEME
TIME_SYSTEM    = UTC
MEAN_ELEMENT_THEORY = SGP/SGP4

EPOCH          = 2026-03-17T19:45:51.556032
MEAN_MOTION    = 14.85537372
ECCENTRICITY   = .0017379
INCLINATION    = 82.5160
RA_OF_ASC_NODE = 187.7120
ARG_OF_PERICENTER = 207.2409
MEAN_ANOMALY   = 152.7897

EPHEMERIS_TYPE = 0
CLASSIFICATION_TYPE = U
NORAD_CAT_ID   = 18749
ELEMENT_SET_NO = 999
REV_AT_EPOCH   = 4323
BSTAR          = .51924354E-4
MEAN_MOTION_DOT = .474E-5
MEAN_MOTION_DDOT = 0

CCSDS_OMM_VERS = 2.0
CREATION_DATE  = 
ORIGINATOR     = 

OBJECT_NAME    = COSMOS 1933
OBJECT_ID      = 1988-020A
CENTER_NAME    = EARTH
REF_FRAME      = TEME
TIME_SYSTEM    = UTC
MEAN_ELEMENT_THEORY = SGP/SGP4

EPOCH          = 2026-03-17T21:32:59.166528
MEAN_MOTION    = 15.18060642
ECCENTRICITY   = .00045173
INCLINATION    = 82.5102
RA_OF_ASC_NODE = 242.7884
ARG_OF_PERICENTER = 155.2392
MEAN_ANOMALY   = 204.9060

EPHEMERIS_TYPE = 0
CLASSIFICATION_TYPE = U
NORAD_CAT_ID   = 18958
ELEMENT_SET_NO = 999
REV_AT_EPOCH   = 5147
BSTAR          = .15080127E-3
MEAN_MOTION_DOT = .3101E-4
MEAN_MOTION_DDOT = 0

