SL-14 R/B               
1 16792U 86046B   26076.68784924  .00000442  00000+0  48132-4 0  9999
2 16792  82.4785  72.6218 0022565 197.9354 162.1069 14.85598263127595
SL-14 R/B               
1 16882U 86055B   26076.56556708  .00000422  00000+0  45791-4 0  9999
2 16882  82.5186 119.2706 0017625 309.1840 203.7466 14.85649766120534
AJISAI (EGS)            
1 16908U 86061A   26076.98230587 -.00000096  00000+0  92033-5 0  9995
2 16908  50.0089  67.8466 0011296 308.4048  99.4068 12.44515702469030
SL-14 R/B               
1 17567U 87024B   26076.38168080  .00000448  00000+0  48262-4 0  9993
2 17567  82.5244  85.5317 0016955 232.2986 127.6694 14.86139520 89270
COSMOS 1833             
1 17589U 87027A   26076.93030250 -.00000217  00000+0 -89993-4 0  9990
2 17589  70.9203 308.6996 0023845 202.7372 157.2696 14.13052273 11487
SL-16 R/B               
1 17590U 87027B   26076.95066596 -.00000043  00000+0  25798-5 0  9996
2 17590  70.9993 259.0852 0003118 123.9522 236.1899 14.17166760 16519
SL-14 R/B               
1 17912U 87038B   26076.85216414  .00000406  00000+0  44236-4 0  9990
2 17912  82.4988 289.1170 0020321 134.5280 225.7600 14.85376403 80449
COSMOS 1844             
1 17973U 87041A   26076.88600960 -.00000031  00000+0  89805-5 0  9994
2 17973  70.9007  16.8875 0030435   5.8863 354.2610 14.14551103  4743
SL-14 R/B               
1 18153U 87055B   26076.82761762  .00000434  00000+0  47142-4 0  9995
2 18153  82.5027 341.3636 0020400 351.2775   8.8083 14.85638340 71148
COSMOS 1867             
1 18187U 87060A   26076.89451502 -.00000040  00000+0  22799-4 0  9998
2 18187  65.0098 283.7274 0014605 279.1354  80.8077 14.31504254 21119
SL-14 R/B               
1 18749U 88001B   26076.82351338  .00000474  00000+0  51924-4 0  9999
2 18749  82.5160 187.7120 0017379 207.2409 152.7897 14.85537372 43236
COSMOS 1933             
1 18958U 88020A   26076.89790702  .00003101  00000+0  15080-3 0  9993
2 18958  82.5102 242.7884 0004517 155.2392 204.9060 15.18060642 51471
